[{"OBJECT_NAME":"STARLINK-31868","OBJECT_ID":"2024-093B","EPOCH":"2026-03-09T09:00:08.497440","MEAN_MOTION":15.27575082,"ECCENTRICITY":0.00014446,"INCLINATION":43.0032,"RA_OF_ASC_NODE":207.45,"ARG_OF_PERICENTER":253.4787,"MEAN_ANOMALY":106.5907,"EPHEMERIS_TYPE":0,"CLASSIFICATION_TYPE":"U","NORAD_CAT_ID":59783,"ELEMENT_SET_NO":999,"REV_AT_EPOCH":10268,"BSTAR":-7.408383e-6,"MEAN_MOTION_DOT":-4.66e-6,"MEAN_MOTION_DDOT":0},{"OBJECT_NAME":"TRANSPORTER-1 OBJECT AA","OBJECT_ID":"2021-006AA","EPOCH":"2026-03-09T22:58:14.761920","MEAN_MOTION":15.29982294,"ECCENTRICITY":0.00086604,"INCLINATION":97.2381,"RA_OF_ASC_NODE":112.457,"ARG_OF_PERICENTER":185.709,"MEAN_ANOMALY":174.4054,"EPHEMERIS_TYPE":0,"CLASSIFICATION_TYPE":"U","NORAD_CAT_ID":47437,"ELEMENT_SET_NO":999,"REV_AT_EPOCH":28414,"BSTAR":0.0002197941,"MEAN_MOTION_DOT":6.312e-5,"MEAN_MOTION_DDOT":0}]
